<?xml version="1.0" encoding="UTF-8"?>
<srvMgtUtilReq xmlns="urn:ccsds:schema:cssm:1.0.0"
					 xmlns:xsi="http://www.w3.org/2001/XMLSchema-instance"
					 xmlns:xmi="http://www.omg.org/XMI"
   					 xsi:schemaLocation="urn:ccsds:schema:cssm:1.0.0 902x09w0_19-Smurf.xsd">
 			 
	<srvMgtUtilReqHeader originatingOrganization="ESOC"
						 generationTime="2020-165T10:05:00.000Z"
						 version="1"
						 startTime="2020-166T00:00:00.000Z"
						 endTime="2020-167T00:00:00.000Z"
						 purpose="Example of submiision of OMM v2 trajectory data..."
						 description="Request description..."
						 utilizationReqStatus="TEST">
	</srvMgtUtilReqHeader>

	<submissionReq requestID="Request-123456" >
                              <spaceUserNode>Test</spaceUserNode>                              
							  <ommWrapper trajectoryID="TestTrajectoryIdforOMMV2-1234" >


<!--********************************************************************************************************************** -->
<!-- OMM defined in CCSDS 502.0-B-2 and CCSDS 505.0-B-1 starts below                                                       -->
<!--********************************************************************************************************************** -->
							  	 
							  	 <omm xmlns:xsi="http://www.w3.org/2001/XMLSchema-instance"
                                      xmlns:ndm="urn:ccsds:schema:ndmxml"
                                      xsi:noNamespaceSchemaLocation="https://sanaregistry.org/r/ndmxml_qualified/ndmxml-2.0.0-master-2.0.xsd"
							  	      id="CCSDS_OMM_VERS" version="2.0">
							  	    <ndm:header>
							  	       <ndm:COMMENT>THIS EXAMPLE CONFORMS TO FIGURE 4-3 IN 502.0-B-2</ndm:COMMENT>
							  	       <ndm:CREATION_DATE>2007-065T16:00:00</ndm:CREATION_DATE>
							  	       <ndm:ORIGINATOR>NOAA/USA</ndm:ORIGINATOR>
							  	    </ndm:header>
							  	    <ndm:body>
							  	       <ndm:segment>
							  	          <ndm:metadata>
							  	             <ndm:OBJECT_NAME>GOES-9</ndm:OBJECT_NAME>
							  	             <ndm:OBJECT_ID>1995-025A</ndm:OBJECT_ID>
							  	             <ndm:CENTER_NAME>EARTH</ndm:CENTER_NAME>
							  	             <ndm:REF_FRAME>TEME</ndm:REF_FRAME>
							  	             <ndm:TIME_SYSTEM>UTC</ndm:TIME_SYSTEM>
							  	             <ndm:MEAN_ELEMENT_THEORY>TLE</ndm:MEAN_ELEMENT_THEORY>
							  	          </ndm:metadata>
							  	          <ndm:data>
							  	             <ndm:meanElements>
							  	                <ndm:EPOCH>2007-064T10:34:41.4264</ndm:EPOCH>
							  	                <ndm:MEAN_MOTION>1.00273272</ndm:MEAN_MOTION>
							  	                <ndm:ECCENTRICITY>0.0005013</ndm:ECCENTRICITY>
							  	                <ndm:INCLINATION>3.0539</ndm:INCLINATION>
							  	                <ndm:RA_OF_ASC_NODE>81.7939</ndm:RA_OF_ASC_NODE>
							  	                <ndm:ARG_OF_PERICENTER>249.2363</ndm:ARG_OF_PERICENTER>
							  	                <ndm:MEAN_ANOMALY>150.1602</ndm:MEAN_ANOMALY>
							  	                <ndm:GM>398600.8</ndm:GM>
							  	             </ndm:meanElements>
							  	             <ndm:tleParameters>
							  	                <ndm:NORAD_CAT_ID>23581</ndm:NORAD_CAT_ID>
							  	                <ndm:ELEMENT_SET_NO>0925</ndm:ELEMENT_SET_NO>
							  	                <ndm:REV_AT_EPOCH>4316</ndm:REV_AT_EPOCH>
							  	                <ndm:BSTAR>0.0001</ndm:BSTAR>
							  	                <ndm:MEAN_MOTION_DOT>-0.00000113</ndm:MEAN_MOTION_DOT>
							  	                <ndm:MEAN_MOTION_DDOT>0.0</ndm:MEAN_MOTION_DDOT>
							  	             </ndm:tleParameters>							  	 
							  	             <ndm:covarianceMatrix>
							  	                <ndm:COV_REF_FRAME>TEME</ndm:COV_REF_FRAME>
							  	                <ndm:CX_X>0.316</ndm:CX_X>
							  	                <ndm:CY_X>0.722</ndm:CY_X>
							  	                <ndm:CY_Y>0.518</ndm:CY_Y>
							  	                <ndm:CZ_X>0.202</ndm:CZ_X>
							  	                <ndm:CZ_Y>0.715</ndm:CZ_Y>
							  	                <ndm:CZ_Z>0.002</ndm:CZ_Z>
							  	                <ndm:CX_DOT_X>0.912</ndm:CX_DOT_X>
							  	                <ndm:CX_DOT_Y>0.306</ndm:CX_DOT_Y>
							  	                <ndm:CX_DOT_Z>0.276</ndm:CX_DOT_Z>
							  	                <ndm:CX_DOT_X_DOT>0.797</ndm:CX_DOT_X_DOT>
							  	                <ndm:CY_DOT_X>0.562</ndm:CY_DOT_X>
							  	                <ndm:CY_DOT_Y>0.899</ndm:CY_DOT_Y>
							  	                <ndm:CY_DOT_Z>0.022</ndm:CY_DOT_Z>
							  	                <ndm:CY_DOT_X_DOT>0.079</ndm:CY_DOT_X_DOT>
							  	                <ndm:CY_DOT_Y_DOT>0.415</ndm:CY_DOT_Y_DOT>
							  	                <ndm:CZ_DOT_X>0.245</ndm:CZ_DOT_X>
							  	                <ndm:CZ_DOT_Y>0.965</ndm:CZ_DOT_Y>
							  	                <ndm:CZ_DOT_Z>0.950</ndm:CZ_DOT_Z>
							  	                <ndm:CZ_DOT_X_DOT>0.435</ndm:CZ_DOT_X_DOT>
							  	                <ndm:CZ_DOT_Y_DOT>0.621</ndm:CZ_DOT_Y_DOT>
							  	                <ndm:CZ_DOT_Z_DOT>0.991</ndm:CZ_DOT_Z_DOT>
							  	             </ndm:covarianceMatrix>
							  	          </ndm:data>
							  	       </ndm:segment>
							  	    </ndm:body>							  	 
							  	 </omm>


<!--********************************************************************************************************************** -->
<!-- OMM defined in CCSDS 502.0-B-2 and CCSDS 505.0-B-1 finishes above                                                     -->
<!--********************************************************************************************************************** -->

							  </ommWrapper>
	</submissionReq>
	
</srvMgtUtilReq>